SHIJIAN-25 (SJ-25)      
1 62485U 25002A   26199.82390307 -.00000358  00000+0  00000+0 0  9998
2 62485   5.1867  60.9651 0050886 176.5823 122.7745  1.00279843  5670
TJS-14                  
1 62804U 25017A   26200.26753492  .00000110  00000+0  00000+0 0  9993
2 62804   0.7116 298.0886 0001923 305.9058 167.7494  1.00269207  5597
SPAINSAT NG I           
1 62852U 25021A   26200.26961493  .00000146  00000+0  00000+0 0  9992
2 62852   0.0199  44.2032 0000101  21.1717 357.7232  1.00270747  4304
QZS-6 (MICHIBIKI-6)     
1 62876U 25023A   26200.12316785 -.00000239  00000+0  00000+0 0  9997
2 62876   0.0116  37.5597 0001900  77.0413 317.1169  1.00274576  5260
ZHONGXING-10R           
1 63075U 25036A   26200.28582166 -.00000357  00000+0  00000+0 0  9999
2 63075   0.0256 168.1971 0004339 338.1300   4.1561  1.00270534  5280
TJS-15                  
1 63157U 25045A   26199.81210330 -.00000272  00000+0  00000+0 0  9993
2 63157   0.3094  85.6905 0003083 294.8019 302.8663  1.00272854  5079
TIANLIAN 2-04           
1 63361U 25062A   26200.23169704 -.00000139  00000+0  00000+0 0  9998
2 63361   4.2935 273.9775 0031418   9.2977 177.1849  1.00272636  4924
TJS-16                  
1 63397U 25064A   26199.72539708 -.00000112  00000+0  00000+0 0  9996
2 63397   1.1777  81.2665 0002454 294.7569 342.2525  1.00271244  4703
TJS-17                  
1 63524U 25073A   26199.82514919 -.00000077  00000+0  00000+0 0  9996
2 63524   1.1440  82.4266 0001008 314.2292   1.5118  1.00271316  4609
TIANLIAN 2-05           
1 63662U 25084A   26200.26796825  .00000121  00000+0  00000+0 0  9999
2 63662   4.3709 279.4694 0002704 157.6323 336.7899  1.00273129  4700
TJS-19                  
1 63924U 25097A   26199.82118086 -.00000281  00000+0  00000+0 0  9998
2 63924   3.2341 317.9697 0004110 251.3720 164.1101  1.00274857  4469
CHINASAT 3B             
1 64062U 25106A   26200.15447947 -.00000050  00000+0  00000+0 0  9997
2 64062   0.0330 186.5072 0004139 319.2493  14.1137  1.00272149  4381
SXM-10                  
1 64290U 25122A   26200.28908264 -.00000022  00000+0  00000+0 0  9995
2 64290   0.0183  46.1891 0001818 317.2661 281.5229  1.00271575  4009
COSMOS 2589             
1 64467U 25131A   26199.81911373 -.00000297  00000+0  00000+0 0  9996
2 64467   0.0238 120.2702 0001222  64.5231 144.7079  1.00268636  3876
CHINASAT 9C             
1 64470U 25132A   26200.12316785 -.00000253  00000+0  00000+0 0  9996
2 64470   0.0145  92.3058 0003448  23.3082 317.8312  1.00273394  4465
MTG-S1                  
1 64723U 25143A   26200.26380823 -.00000012  00000+0  00000+0 0  9991
2 64723   0.5822 346.0874 0003292 258.8086 146.7605  1.00274809  3740
DROR 1                  
1 64784U 25148A   26200.19184706 -.00000039  00000+0  00000+0 0  9996
2 64784   0.0394 241.9936 0002007 159.5162 320.5475  1.00272926  3614
SHIYAN-29               
1 65486U 25196A   26198.96433682 -.00000287  00000+0  00000+0 0  9995
2 65486  28.8546  18.1469 0013154 177.5801 182.5349  1.00275892  3184
NUSANTARA LIMA (NUSANT*)
1 65588U 25205A   26200.07238416 -.00000363  00000+0  00000+0 0  9998
2 65588   0.0115  91.7060 0000414  86.3457 257.7190  1.00273575  3033
TJS-20                  
1 66142U 25238A   26199.95348558  .00000021  00000+0  00000+0 0  9994
2 66142   5.3988 299.4301 0003804 187.2691 215.7541  1.00267957  2656
CMS-03 (GSAT-7R)        
1 66311U 25249B   26200.18913678  .00000000  00000+0  00000+0 0  9990
2 66311   0.0153  58.7910 0002457  59.4597 320.8181  1.00269872  2667
VIASAT-3 F2             
1 66454U 25261A   26200.23287281 -.00000239  00000+0  00000+0 0  9997
2 66454   0.0022 117.1237 0000566  93.1603  91.6055  1.00272017  3113
SHIJIAN-28 (SJ-28)      
1 66549U 25277A   26200.14003082 -.00000364  00000+0  00000+0 0  9993
2 66549   4.4567 271.6232 0001219  55.4959 137.0372  1.00275038  2473
TJS-22                  
1 66990U 25290A   26193.80754925 -.00000005  00000+0  00000+0 0  9993
2 66990   1.4677 286.9097 0002691 318.9700  42.0235  1.00269739  2289
TJS-23                  
1 67226U 25306A   26199.51558626  .00000011  00000+0  00000+0 0  9994
2 67226   5.5184 297.3214 0004396 198.9022 161.2643  1.00268121  2207
FENGYUN 4C              
1 67246U 25312A   26194.65865777 -.00000328  00000+0  00000+0 0  9993
2 67246   0.0385 175.3203 0000658  48.7481  77.5697  1.00269440  2048
SHIJIAN-29A (SJ-29A)    
1 67302U 25315A   26200.18913678 -.00000074  00000+0  00000+0 0  9997
2 67302   3.4775  94.3402 0004981  50.7085 293.1959  1.00273064  1939
SHIJIAN-29B (SJ-29B)    
1 67403U 25315C   26200.13584606 -.00000075  00000+0  00000+0 0  9990
2 67403   3.4763  94.3344 0005175  54.0694 270.6549  1.00273325  2006
ELEKTRO-L 5             
1 67756U 26028A   26199.96427910 -.00000104  00000+0  00000+0 0  9998
2 67756   0.2028 326.9083 0002076 176.1187 216.9691  1.00271836  1566
JAM-E JAM 1             
1 67757U 26028B   26200.19938709  .00000150  00000+0  00000+0 0  9990
2 67757   0.1991 314.9524 0000687 261.0918 186.7302  1.00266238  1444
ECHOSTAR 25             
1 68126U 26045A   26200.17084655 -.00000062  00000+0  00000+0 0  9993
2 68126   0.0191  53.7461 0001781  55.4370 139.2729  1.00271690  1317
TJS-24                  
1 69235U 26116A   26200.29973469 -.00000237  00000+0  00000+0 0  9991
2 69235   0.0877  94.2877 0000316 151.0343 249.9625  1.00273799   558
