OBJECT_NAME,OBJECT_ID,EPOCH,MEAN_MOTION,ECCENTRICITY,INCLINATION,RA_OF_ASC_NODE,ARG_OF_PERICENTER,MEAN_ANOMALY,EPHEMERIS_TYPE,CLASSIFICATION_TYPE,NORAD_CAT_ID,ELEMENT_SET_NO,REV_AT_EPOCH,BSTAR,MEAN_MOTION_DOT,MEAN_MOTION_DDOT
SHIJIAN-25 (SJ-25),2025-002A,2026-07-18T19:46:25.225248,1.00279843,.0050886,5.1867,60.9651,176.5823,122.7745,0,U,62485,999,567,0,-.358E-5,0
TJS-14,2025-017A,2026-07-19T06:25:15.017088,1.00269207,.00019235,0.7116,298.0886,305.9058,167.7494,0,U,62804,999,559,0,.11E-5,0
SPAINSAT NG I,2025-021A,2026-07-19T06:28:14.729952,1.00270747,.00001017,0.0199,44.2032,21.1717,357.7232,0,U,62852,999,430,0,.146E-5,0
QZS-6 (MICHIBIKI-6),2025-023A,2026-07-19T02:57:21.702240,1.00274576,.00019004,0.0116,37.5597,77.0413,317.1169,0,U,62876,999,526,0,-.239E-5,0
ZHONGXING-10R,2025-036A,2026-07-19T06:51:34.991424,1.00270534,.00043393,0.0256,168.1971,338.1300,4.1561,0,U,63075,999,528,0,-.357E-5,0
TJS-15,2025-045A,2026-07-18T19:29:25.725120,1.00272854,.0003083,0.3094,85.6905,294.8019,302.8663,0,U,63157,999,507,0,-.272E-5,0
TIANLIAN 2-04,2025-062A,2026-07-19T05:33:38.624256,1.00272636,.00314182,4.2935,273.9775,9.2977,177.1849,0,U,63361,999,492,0,-.139E-5,0
TJS-16,2025-064A,2026-07-18T17:24:34.307712,1.00271244,.0002454,1.1777,81.2665,294.7569,342.2525,0,U,63397,999,470,0,-.112E-5,0
TJS-17,2025-073A,2026-07-18T19:48:12.890016,1.00271316,.0001008,1.1440,82.4266,314.2292,1.5118,0,U,63524,999,460,0,-.77E-6,0
TIANLIAN 2-05,2025-084A,2026-07-19T06:25:52.456800,1.00273129,.00027046,4.3709,279.4694,157.6323,336.7899,0,U,63662,999,470,0,.121E-5,0
TJS-19,2025-097A,2026-07-18T19:42:30.026304,1.00274857,.000411,3.2341,317.9697,251.3720,164.1101,0,U,63924,999,446,0,-.281E-5,0
CHINASAT 3B,2025-106A,2026-07-19T03:42:27.026208,1.00272149,.00041395,0.0330,186.5072,319.2493,14.1137,0,U,64062,999,438,0,-.5E-6,0
SXM-10,2025-122A,2026-07-19T06:56:16.740096,1.00271575,.00018181,0.0183,46.1891,317.2661,281.5229,0,U,64290,999,400,0,-.22E-6,0
COSMOS 2589,2025-131A,2026-07-18T19:39:31.426272,1.00268636,.0001222,0.0238,120.2702,64.5231,144.7079,0,U,64467,999,387,0,-.297E-5,0
CHINASAT 9C,2025-132A,2026-07-19T02:57:21.702240,1.00273394,.00034485,0.0145,92.3058,23.3082,317.8312,0,U,64470,999,446,0,-.253E-5,0
MTG-S1,2025-143A,2026-07-19T06:19:53.031072,1.00274809,.00032925,0.5822,346.0874,258.8086,146.7605,0,U,64723,999,374,0,-.12E-6,0
DROR 1,2025-148A,2026-07-19T04:36:15.585984,1.00272926,.00020077,0.0394,241.9936,159.5162,320.5475,0,U,64784,999,361,0,-.39E-6,0
SHIYAN-29,2025-196A,2026-07-17T23:08:38.701248,1.00275892,.00131541,28.8546,18.1469,177.5801,182.5349,0,U,65486,999,318,0,-.287E-5,0
NUSANTARA LIMA (NUSANTARA 5),2025-205A,2026-07-19T01:44:13.991424,1.00273575,.00004149,0.0115,91.7060,86.3457,257.7190,0,U,65588,999,303,0,-.363E-5,0
TJS-20,2025-238A,2026-07-18T22:53:01.154112,1.00267957,.00038049,5.3988,299.4301,187.2691,215.7541,0,U,66142,999,265,0,.21E-6,0
CMS-03 (GSAT-7R),2025-249B,2026-07-19T04:32:21.417792,1.00269872,.00024571,0.0153,58.7910,59.4597,320.8181,0,U,66311,999,266,0,0,0
VIASAT-3 F2,2025-261A,2026-07-19T05:35:20.210784,1.00272017,.00005666,0.0022,117.1237,93.1603,91.6055,0,U,66454,999,311,0,-.239E-5,0
SHIJIAN-28 (SJ-28),2025-277A,2026-07-19T03:21:38.662848,1.00275038,.00012198,4.4567,271.6232,55.4959,137.0372,0,U,66549,999,247,0,-.364E-5,0
TJS-22,2025-290A,2026-07-12T19:22:52.255200,1.00269739,.0002691,1.4677,286.9097,318.9700,42.0235,0,U,66990,999,228,0,-.5E-7,0
TJS-23,2025-306A,2026-07-18T12:22:26.652864,1.00268121,.0004396,5.5184,297.3214,198.9022,161.2643,0,U,67226,999,220,0,.11E-6,0
FENGYUN 4C,2025-312A,2026-07-13T15:48:28.031328,1.00269440,.00006584,0.0385,175.3203,48.7481,77.5697,0,U,67246,999,204,0,-.328E-5,0
SHIJIAN-29A (SJ-29A),2025-315A,2026-07-19T04:32:21.417792,1.00273064,.00049819,3.4775,94.3402,50.7085,293.1959,0,U,67302,999,193,0,-.74E-6,0
SHIJIAN-29B (SJ-29B),2025-315C,2026-07-19T03:15:37.099584,1.00273325,.0005175,3.4763,94.3344,54.0694,270.6549,0,U,67403,999,200,0,-.75E-6,0
ELEKTRO-L 5,2026-028A,2026-07-18T23:08:33.714240,1.00271836,.00020761,0.2028,326.9083,176.1187,216.9691,0,U,67756,999,156,0,-.104E-5,0
JAM-E JAM 1,2026-028B,2026-07-19T04:47:07.044576,1.00266238,.00006871,0.1991,314.9524,261.0918,186.7302,0,U,67757,999,144,0,.15E-5,0
ECHOSTAR 25,2026-045A,2026-07-19T04:06:01.141920,1.00271690,.00017813,0.0191,53.7461,55.4370,139.2729,0,U,68126,999,131,0,-.62E-6,0
TJS-24,2026-116A,2026-07-19T07:11:37.077216,1.00273799,.00003162,0.0877,94.2877,151.0343,249.9625,0,U,69235,999,55,0,-.237E-5,0
